HELIOS 1B               
1 25977U 99064A   26095.28016945  .00002938  00000+0  32797-3 0  9997
2 25977  98.1665 358.3022 0001442  42.9432 317.1895 14.87810915689219
TERRA                   
1 25994U 99068A   26095.21172110  .00000683  00000+0  14810-3 0  9991
2 25994  97.9537 147.6258 0003671  97.2018 284.2865 14.61045304398955
SL-16 R/B               
1 26070U 00006B   26095.29475761  .00000055  00000+0  52102-4 0  9997
2 26070  71.0041  41.8920 0015179 148.1103 212.0942 14.15831310352327
TITAN 4B R/B            
1 26474U 00047B   26095.26377660  .00004368  00000+0  27265-3 0  9998
2 26474  67.9899 325.7738 0040491   4.3669 355.7825 15.09816587396928
ENVISAT                 
1 27386U 02009A   26095.33007992  .00000184  00000+0  73590-4 0  9992
2 27386  98.3772  48.3005 0001173  82.2612  72.9744 14.39046909263006
IDEFIX & ARIANE 42P R/B 
1 27422U 02021B   26095.27503352  .00000424  00000+0  17731-3 0  9992
2 27422  98.5900  33.5686 0012870 107.2357 253.0236 14.31045719247823
AQUA                    
1 27424U 02022A   26095.24879583  .00001495  00000+0  30768-3 0  9998
2 27424  98.4220  63.1068 0001432 115.0459 357.1425 14.62042696272610
CZ-4B R/B               
1 27432U 02024C   26095.17421012  .00000068  00000+0  57928-4 0  9994
2 27432  98.8781 148.4405 0049228 308.5332 117.5148 14.14552767232989
MIDORI II (ADEOS-II)    
1 27597U 02056A   26095.12530419  .00000439  00000+0  19015-3 0  9994
2 27597  98.7816  53.7934 0000358  22.7439 337.3759 14.29306688214073
H-2A R/B                
1 27601U 02056E   26095.31532214  .00000454  00000+0  17329-3 0  9999
2 27601  98.3251  54.6749 0071414  82.3674  78.5271 14.33780680217929
CZ-4B R/B               
1 28059U 03049C   26094.99650627  .00000486  00000+0  12265-3 0  9991
2 28059  98.6898  90.9380 0048704 150.2446 210.1535 14.55045221190420
CZ-2C R/B               
1 28222U 04012C   26095.12499234  .00069434  00000+0  62251-3 0  9993
2 28222  97.7165 162.9803 0013773 207.0419 153.0125 15.67975079208414
SL-16 R/B               
1 28353U 04021B   26095.25710906  .00000378  00000+0  22137-3 0  9995
2 28353  71.0013 176.7408 0005479 336.2652  23.8217 14.14600579126593
CZ-4B R/B               
1 28415U 04035C   26095.08189203  .00009991  00000+0  34651-3 0  9994
2 28415  97.3451 129.0102 0030347 232.7680 127.0791 15.29559765183947
CZ-2C R/B               
1 28480U 04046B   26095.27066827  .00000266  00000+0  11338-3 0  9998
2 28480  98.1975   8.5983 0140607  76.3849 285.2948 14.27003165112293
ARIANE 5 R/B            
1 28499U 04049H   26095.17539601  .00001328  00000+0  15258-3 0  9990
2 28499  98.2665 264.6314 0082815 265.1723  94.0031 14.85320013149723
CZ-2D R/B               
1 28738U 05024B   26095.30605165  .00055189  00000+0  61234-3 0  9993
2 28738  97.3566 111.4754 0001818 271.9988  88.1062 15.62776122143935
