[{"OBJECT_NAME":"HELIOS 1B","OBJECT_ID":"1999-064A","EPOCH":"2026-04-05T06:43:26.640480","MEAN_MOTION":14.87810915,"ECCENTRICITY":0.00014423,"INCLINATION":98.1665,"RA_OF_ASC_NODE":358.3022,"ARG_OF_PERICENTER":42.9432,"MEAN_ANOMALY":317.1895,"EPHEMERIS_TYPE":0,"CLASSIFICATION_TYPE":"U","NORAD_CAT_ID":25977,"ELEMENT_SET_NO":999,"REV_AT_EPOCH":68921,"BSTAR":0.00032797092,"MEAN_MOTION_DOT":2.938e-5,"MEAN_MOTION_DDOT":0},{"OBJECT_NAME":"TERRA","OBJECT_ID":"1999-068A","EPOCH":"2026-04-05T05:04:52.703040","MEAN_MOTION":14.61045304,"ECCENTRICITY":0.00036711,"INCLINATION":97.9537,"RA_OF_ASC_NODE":147.6258,"ARG_OF_PERICENTER":97.2018,"MEAN_ANOMALY":284.2865,"EPHEMERIS_TYPE":0,"CLASSIFICATION_TYPE":"U","NORAD_CAT_ID":25994,"ELEMENT_SET_NO":999,"REV_AT_EPOCH":39895,"BSTAR":0.00014809783,"MEAN_MOTION_DOT":6.83e-6,"MEAN_MOTION_DDOT":0},{"OBJECT_NAME":"SL-16 R/B","OBJECT_ID":"2000-006B","EPOCH":"2026-04-05T07:04:27.057504","MEAN_MOTION":14.1583131,"ECCENTRICITY":0.00151799,"INCLINATION":71.0041,"RA_OF_ASC_NODE":41.892,"ARG_OF_PERICENTER":148.1103,"MEAN_ANOMALY":212.0942,"EPHEMERIS_TYPE":0,"CLASSIFICATION_TYPE":"U","NORAD_CAT_ID":26070,"ELEMENT_SET_NO":999,"REV_AT_EPOCH":35232,"BSTAR":5.2102264e-5,"MEAN_MOTION_DOT":5.5e-7,"MEAN_MOTION_DDOT":0},{"OBJECT_NAME":"TITAN 4B R/B","OBJECT_ID":"2000-047B","EPOCH":"2026-04-05T06:19:50.298240","MEAN_MOTION":15.09816587,"ECCENTRICITY":0.00404914,"INCLINATION":67.9899,"RA_OF_ASC_NODE":325.7738,"ARG_OF_PERICENTER":4.3669,"MEAN_ANOMALY":355.7825,"EPHEMERIS_TYPE":0,"CLASSIFICATION_TYPE":"U","NORAD_CAT_ID":26474,"ELEMENT_SET_NO":999,"REV_AT_EPOCH":39692,"BSTAR":0.00027264895,"MEAN_MOTION_DOT":4.368e-5,"MEAN_MOTION_DDOT":0},{"OBJECT_NAME":"ENVISAT","OBJECT_ID":"2002-009A","EPOCH":"2026-04-05T07:55:18.905088","MEAN_MOTION":14.39046909,"ECCENTRICITY":0.00011731,"INCLINATION":98.3772,"RA_OF_ASC_NODE":48.3005,"ARG_OF_PERICENTER":82.2612,"MEAN_ANOMALY":72.9744,"EPHEMERIS_TYPE":0,"CLASSIFICATION_TYPE":"U","NORAD_CAT_ID":27386,"ELEMENT_SET_NO":999,"REV_AT_EPOCH":26300,"BSTAR":7.3590138e-5,"MEAN_MOTION_DOT":1.84e-6,"MEAN_MOTION_DDOT":0},{"OBJECT_NAME":"IDEFIX & ARIANE 42P R/B","OBJECT_ID":"2002-021B","EPOCH":"2026-04-05T06:36:02.896128","MEAN_MOTION":14.31045719,"ECCENTRICITY":0.00128709,"INCLINATION":98.59,"RA_OF_ASC_NODE":33.5686,"ARG_OF_PERICENTER":107.2357,"MEAN_ANOMALY":253.0236,"EPHEMERIS_TYPE":0,"CLASSIFICATION_TYPE":"U","NORAD_CAT_ID":27422,"ELEMENT_SET_NO":999,"REV_AT_EPOCH":24782,"BSTAR":0.00017730949,"MEAN_MOTION_DOT":4.24e-6,"MEAN_MOTION_DDOT":0},{"OBJECT_NAME":"AQUA","OBJECT_ID":"2002-022A","EPOCH":"2026-04-05T05:58:15.959712","MEAN_MOTION":14.62042696,"ECCENTRICITY":0.00014329,"INCLINATION":98.422,"RA_OF_ASC_NODE":63.1068,"ARG_OF_PERICENTER":115.0459,"MEAN_ANOMALY":357.1425,"EPHEMERIS_TYPE":0,"CLASSIFICATION_TYPE":"U","NORAD_CAT_ID":27424,"ELEMENT_SET_NO":999,"REV_AT_EPOCH":27261,"BSTAR":0.00030767904,"MEAN_MOTION_DOT":1.495e-5,"MEAN_MOTION_DDOT":0},{"OBJECT_NAME":"CZ-4B R/B","OBJECT_ID":"2002-024C","EPOCH":"2026-04-05T04:10:51.754368","MEAN_MOTION":14.14552767,"ECCENTRICITY":0.00492281,"INCLINATION":98.8781,"RA_OF_ASC_NODE":148.4405,"ARG_OF_PERICENTER":308.5332,"MEAN_ANOMALY":117.5148,"EPHEMERIS_TYPE":0,"CLASSIFICATION_TYPE":"U","NORAD_CAT_ID":27432,"ELEMENT_SET_NO":999,"REV_AT_EPOCH":23298,"BSTAR":5.7927542e-5,"MEAN_MOTION_DOT":6.8e-7,"MEAN_MOTION_DDOT":0},{"OBJECT_NAME":"MIDORI II (ADEOS-II)","OBJECT_ID":"2002-056A","EPOCH":"2026-04-05T03:00:26.282016","MEAN_MOTION":14.29306688,"ECCENTRICITY":3.583e-5,"INCLINATION":98.7816,"RA_OF_ASC_NODE":53.7934,"ARG_OF_PERICENTER":22.7439,"MEAN_ANOMALY":337.3759,"EPHEMERIS_TYPE":0,"CLASSIFICATION_TYPE":"U","NORAD_CAT_ID":27597,"ELEMENT_SET_NO":999,"REV_AT_EPOCH":21407,"BSTAR":0.00019015401,"MEAN_MOTION_DOT":4.39e-6,"MEAN_MOTION_DDOT":0},{"OBJECT_NAME":"H-2A R/B","OBJECT_ID":"2002-056E","EPOCH":"2026-04-05T07:34:03.832896","MEAN_MOTION":14.3378068,"ECCENTRICITY":0.00714142,"INCLINATION":98.3251,"RA_OF_ASC_NODE":54.6749,"ARG_OF_PERICENTER":82.3674,"MEAN_ANOMALY":78.5271,"EPHEMERIS_TYPE":0,"CLASSIFICATION_TYPE":"U","NORAD_CAT_ID":27601,"ELEMENT_SET_NO":999,"REV_AT_EPOCH":21792,"BSTAR":0.00017329274,"MEAN_MOTION_DOT":4.54e-6,"MEAN_MOTION_DDOT":0},{"OBJECT_NAME":"CZ-4B R/B","OBJECT_ID":"2003-049C","EPOCH":"2026-04-04T23:54:58.141728","MEAN_MOTION":14.55045221,"ECCENTRICITY":0.00487041,"INCLINATION":98.6898,"RA_OF_ASC_NODE":90.938,"ARG_OF_PERICENTER":150.2446,"MEAN_ANOMALY":210.1535,"EPHEMERIS_TYPE":0,"CLASSIFICATION_TYPE":"U","NORAD_CAT_ID":28059,"ELEMENT_SET_NO":999,"REV_AT_EPOCH":19042,"BSTAR":0.00012265381,"MEAN_MOTION_DOT":4.86e-6,"MEAN_MOTION_DDOT":0},{"OBJECT_NAME":"CZ-2C R/B","OBJECT_ID":"2004-012C","EPOCH":"2026-04-05T02:59:59.338176","MEAN_MOTION":15.67975079,"ECCENTRICITY":0.00137733,"INCLINATION":97.7165,"RA_OF_ASC_NODE":162.9803,"ARG_OF_PERICENTER":207.0419,"MEAN_ANOMALY":153.0125,"EPHEMERIS_TYPE":0,"CLASSIFICATION_TYPE":"U","NORAD_CAT_ID":28222,"ELEMENT_SET_NO":999,"REV_AT_EPOCH":20841,"BSTAR":0.00062251093,"MEAN_MOTION_DOT":0.00069434,"MEAN_MOTION_DDOT":0},{"OBJECT_NAME":"SL-16 R/B","OBJECT_ID":"2004-021B","EPOCH":"2026-04-05T06:10:14.222784","MEAN_MOTION":14.14600579,"ECCENTRICITY":0.00054798,"INCLINATION":71.0013,"RA_OF_ASC_NODE":176.7408,"ARG_OF_PERICENTER":336.2652,"MEAN_ANOMALY":23.8217,"EPHEMERIS_TYPE":0,"CLASSIFICATION_TYPE":"U","NORAD_CAT_ID":28353,"ELEMENT_SET_NO":999,"REV_AT_EPOCH":12659,"BSTAR":0.00022137307,"MEAN_MOTION_DOT":3.78e-6,"MEAN_MOTION_DDOT":0},{"OBJECT_NAME":"CZ-4B R/B","OBJECT_ID":"2004-035C","EPOCH":"2026-04-05T01:57:55.471392","MEAN_MOTION":15.29559765,"ECCENTRICITY":0.00303479,"INCLINATION":97.3451,"RA_OF_ASC_NODE":129.0102,"ARG_OF_PERICENTER":232.768,"MEAN_ANOMALY":127.0791,"EPHEMERIS_TYPE":0,"CLASSIFICATION_TYPE":"U","NORAD_CAT_ID":28415,"ELEMENT_SET_NO":999,"REV_AT_EPOCH":18394,"BSTAR":0.00034651114,"MEAN_MOTION_DOT":9.991e-5,"MEAN_MOTION_DDOT":0},{"OBJECT_NAME":"CZ-2C R/B","OBJECT_ID":"2004-046B","EPOCH":"2026-04-05T06:29:45.738528","MEAN_MOTION":14.27003165,"ECCENTRICITY":0.01406078,"INCLINATION":98.1975,"RA_OF_ASC_NODE":8.5983,"ARG_OF_PERICENTER":76.3849,"MEAN_ANOMALY":285.2948,"EPHEMERIS_TYPE":0,"CLASSIFICATION_TYPE":"U","NORAD_CAT_ID":28480,"ELEMENT_SET_NO":999,"REV_AT_EPOCH":11229,"BSTAR":0.00011337914,"MEAN_MOTION_DOT":2.66e-6,"MEAN_MOTION_DDOT":0},{"OBJECT_NAME":"ARIANE 5 R/B","OBJECT_ID":"2004-049H","EPOCH":"2026-04-05T04:12:34.215264","MEAN_MOTION":14.85320013,"ECCENTRICITY":0.00828151,"INCLINATION":98.2665,"RA_OF_ASC_NODE":264.6314,"ARG_OF_PERICENTER":265.1723,"MEAN_ANOMALY":94.0031,"EPHEMERIS_TYPE":0,"CLASSIFICATION_TYPE":"U","NORAD_CAT_ID":28499,"ELEMENT_SET_NO":999,"REV_AT_EPOCH":14972,"BSTAR":0.00015258011,"MEAN_MOTION_DOT":1.328e-5,"MEAN_MOTION_DDOT":0},{"OBJECT_NAME":"CZ-2D R/B","OBJECT_ID":"2005-024B","EPOCH":"2026-04-05T07:20:42.862560","MEAN_MOTION":15.62776122,"ECCENTRICITY":0.00018181,"INCLINATION":97.3566,"RA_OF_ASC_NODE":111.4754,"ARG_OF_PERICENTER":271.9988,"MEAN_ANOMALY":88.1062,"EPHEMERIS_TYPE":0,"CLASSIFICATION_TYPE":"U","NORAD_CAT_ID":28738,"ELEMENT_SET_NO":999,"REV_AT_EPOCH":14393,"BSTAR":0.00061234264,"MEAN_MOTION_DOT":0.00055189,"MEAN_MOTION_DDOT":0}]
